ASTROCAST 0.1           
1 43798U 18099AS  26188.78765574  .00022555  00000+0  38869-3 0  9997
2 43798  97.4362 267.9470 0005642 148.2749 211.8844 15.51051961417623
ASTROCAST-0402          
1 55109U 23001DE  26189.51240955  .00006543  00000+0  23558-3 0  9996
2 55109  97.5574 283.0347 0006008 152.8937 207.2617 15.28921007147793
ASTROCAST-0401          
1 55110U 23001DF  26188.80565446  .00007937  00000+0  28952-3 0  9995
2 55110  97.5557 282.1299 0009438 129.9714 230.2355 15.28393189194353
ASTROCAST-0403          
1 55111U 23001DG  26188.77519554  .00013248  00000+0  42936-3 0  9991
2 55111  97.5615 283.3704 0004126 242.0830 117.9993 15.32124196147710
ASTROCAST-0404          
1 55112U 23001DH  26189.54529613  .00005670  00000+0  20558-3 0  9991
2 55112  97.5663 283.9952 0004822 273.9451  86.1237 15.28756342147795
