{"fetched_at":"2026-07-08T17:59:35.693Z","source":"https://celestrak.org/NORAD/elements/gp.php?NAME=ASTROCAST&FORMAT=JSON","constellation":"astrocast","records":[{"OBJECT_NAME":"ASTROCAST 0.1","OBJECT_ID":"2018-099AS","EPOCH":"2026-07-07T18:54:13.455936","CLASSIFICATION_TYPE":"U","MEAN_MOTION":15.51051961,"ECCENTRICITY":0.0005642,"INCLINATION":97.4362,"RA_OF_ASC_NODE":267.947,"ARG_OF_PERICENTER":148.2749,"MEAN_ANOMALY":211.8844,"EPHEMERIS_TYPE":0,"NORAD_CAT_ID":43798,"ELEMENT_SET_NO":999,"REV_AT_EPOCH":41762,"BSTAR":0.00038869,"MEAN_MOTION_DOT":0.00022555,"MEAN_MOTION_DDOT":0},{"OBJECT_NAME":"ASTROCAST-0402","OBJECT_ID":"2023-001DE","EPOCH":"2026-07-08T12:17:52.185120","CLASSIFICATION_TYPE":"U","MEAN_MOTION":15.28921007,"ECCENTRICITY":0.0006008,"INCLINATION":97.5574,"RA_OF_ASC_NODE":283.0347,"ARG_OF_PERICENTER":152.8937,"MEAN_ANOMALY":207.2617,"EPHEMERIS_TYPE":0,"NORAD_CAT_ID":55109,"ELEMENT_SET_NO":999,"REV_AT_EPOCH":14779,"BSTAR":0.00023558,"MEAN_MOTION_DOT":0.00006543,"MEAN_MOTION_DDOT":0},{"OBJECT_NAME":"ASTROCAST-0401","OBJECT_ID":"2023-001DF","EPOCH":"2026-07-07T19:20:08.545344","CLASSIFICATION_TYPE":"U","MEAN_MOTION":15.28393189,"ECCENTRICITY":0.0009438,"INCLINATION":97.5557,"RA_OF_ASC_NODE":282.1299,"ARG_OF_PERICENTER":129.9714,"MEAN_ANOMALY":230.2355,"EPHEMERIS_TYPE":0,"NORAD_CAT_ID":55110,"ELEMENT_SET_NO":999,"REV_AT_EPOCH":19435,"BSTAR":0.00028952,"MEAN_MOTION_DOT":0.00007937,"MEAN_MOTION_DDOT":0},{"OBJECT_NAME":"ASTROCAST-0403","OBJECT_ID":"2023-001DG","EPOCH":"2026-07-07T18:36:16.894656","CLASSIFICATION_TYPE":"U","MEAN_MOTION":15.32124196,"ECCENTRICITY":0.0004126,"INCLINATION":97.5615,"RA_OF_ASC_NODE":283.3704,"ARG_OF_PERICENTER":242.083,"MEAN_ANOMALY":117.9993,"EPHEMERIS_TYPE":0,"NORAD_CAT_ID":55111,"ELEMENT_SET_NO":999,"REV_AT_EPOCH":14771,"BSTAR":0.00042936,"MEAN_MOTION_DOT":0.00013248,"MEAN_MOTION_DDOT":0},{"OBJECT_NAME":"ASTROCAST-0404","OBJECT_ID":"2023-001DH","EPOCH":"2026-07-08T13:05:13.585632","CLASSIFICATION_TYPE":"U","MEAN_MOTION":15.28756342,"ECCENTRICITY":0.0004822,"INCLINATION":97.5663,"RA_OF_ASC_NODE":283.9952,"ARG_OF_PERICENTER":273.9451,"MEAN_ANOMALY":86.1237,"EPHEMERIS_TYPE":0,"NORAD_CAT_ID":55112,"ELEMENT_SET_NO":999,"REV_AT_EPOCH":14779,"BSTAR":0.00020558,"MEAN_MOTION_DOT":0.0000567,"MEAN_MOTION_DDOT":0}]}
